start=new Date('2023-02-18T00:00:00.000Z').valueOf();
sats=[{"MEAN_MOTION_DOT":"0.00008599","INCLINATION":"53.2153","OBJECT_ID":"2022-053AQ","MEAN_ELEMENT_THEORY":"SGP4","SEMIMAJOR_AXIS":"6917.958","CLASSIFICATION_TYPE":"U","ARG_OF_PERICENTER":"97.5978","TIME_SYSTEM":"UTC","CENTER_NAME":"EARTH","MEAN_MOTION":"15.08814560","FILE":"3804075","GP_ID":"225837830","DECAY_DATE":null,"RCS_SIZE":"LARGE","COUNTRY_CODE":"US","TLE_LINE2":"2 52694  53.2153 113.0776 0001428  97.5978 262.5176 15.08814560 42702","ECCENTRICITY":"0.00014280","MEAN_MOTION_DDOT":"0.0000000000000","MEAN_ANOMALY":"262.5176","REV_AT_EPOCH":"4270","REF_FRAME":"TEME","SITE":"AFETR","TLE_LINE1":"1 52694U 22053AQ  23048.90390784  .00008599  00000-0  55808-3 0  9995","OBJECT_TYPE":"PAYLOAD","EPOCH":"2023-02-17T21:41:37.637376","ELEMENT_SET_NO":"999","PERIOD":"95.439","LAUNCH_DATE":"2022-05-18","BSTAR":"0.00055808000000","RA_OF_ASC_NODE":"113.0776","OBJECT_NAME":"STARLINK-4072","EPHEMERIS_TYPE":"0","NORAD_CAT_ID":"52694","APOAPSIS":"540.811","PERIAPSIS":"538.835"},{"MEAN_MOTION":"15.08816996","FILE":"3804075","CENTER_NAME":"EARTH","TIME_SYSTEM":"UTC","COUNTRY_CODE":"US","RCS_SIZE":"LARGE","ECCENTRICITY":"0.00009170","MEAN_MOTION_DDOT":"0.0000000000000","TLE_LINE2":"2 52695  53.2149 118.1229 0000917  98.9300 261.1795 15.08816996 42643","GP_ID":"225836579","DECAY_DATE":null,"INCLINATION":"53.2149","OBJECT_ID":"2022-053AR","MEAN_MOTION_DOT":"0.00003159","CLASSIFICATION_TYPE":"U","ARG_OF_PERICENTER":"98.9300","SEMIMAJOR_AXIS":"6917.951","MEAN_ELEMENT_THEORY":"SGP4","EPHEMERIS_TYPE":"0","OBJECT_NAME":"STARLINK-4041","NORAD_CAT_ID":"52695","BSTAR":"0.00021658000000","RA_OF_ASC_NODE":"118.1229","PERIAPSIS":"539.181","APOAPSIS":"540.450","REV_AT_EPOCH":"4264","REF_FRAME":"TEME","TLE_LINE1":"1 52695U 22053AR  23048.89520187  .00003159  00000-0  21658-3 0  9999","SITE":"AFETR","MEAN_ANOMALY":"261.1795","PERIOD":"95.439","LAUNCH_DATE":"2022-05-18","ELEMENT_SET_NO":"999","EPOCH":"2023-02-17T21:29:05.441568","OBJECT_TYPE":"PAYLOAD"},{"RCS_SIZE":"LARGE","COUNTRY_CODE":"US","TLE_LINE2":"2 52696  53.2145 113.1326 0000882  91.0163 269.0931 15.08817802 42708","ECCENTRICITY":"0.00008820","MEAN_MOTION_DDOT":"0.0000000000000","DECAY_DATE":null,"GP_ID":"225837329","MEAN_MOTION":"15.08817802","FILE":"3804075","TIME_SYSTEM":"UTC","CENTER_NAME":"EARTH","CLASSIFICATION_TYPE":"U","ARG_OF_PERICENTER":"91.0163","MEAN_ELEMENT_THEORY":"SGP4","SEMIMAJOR_AXIS":"6917.948","OBJECT_ID":"2022-053AS","INCLINATION":"53.2145","MEAN_MOTION_DOT":"-0.00009744","APOAPSIS":"540.423","PERIAPSIS":"539.203","OBJECT_NAME":"STARLINK-4025","EPHEMERIS_TYPE":"0","NORAD_CAT_ID":"52696","BSTAR":"-0.00059534000000","RA_OF_ASC_NODE":"113.1326","PERIOD":"95.439","LAUNCH_DATE":"2022-05-18","EPOCH":"2023-02-17T21:25:43.114368","OBJECT_TYPE":"PAYLOAD","ELEMENT_SET_NO":"999","REF_FRAME":"TEME","REV_AT_EPOCH":"4270","SITE":"AFETR","TLE_LINE1":"1 52696U 22053AS  23048.89286012 -.00009744  00000-0 -59534-3 0  9998","MEAN_ANOMALY":"269.0931"},{"BSTAR":"0.00084351000000","RA_OF_ASC_NODE":"118.0835","OBJECT_NAME":"STARLINK-4018","EPHEMERIS_TYPE":"0","NORAD_CAT_ID":"52697","APOAPSIS":"540.694","PERIAPSIS":"538.955","MEAN_ANOMALY":"248.1442","REV_AT_EPOCH":"4264","REF_FRAME":"TEME","SITE":"AFETR","TLE_LINE1":"1 52697U 22053AT  23048.90256255  .00013153  00000-0  84351-3 0  9999","EPOCH":"2023-02-17T21:39:41.404320","OBJECT_TYPE":"PAYLOAD","ELEMENT_SET_NO":"999","PERIOD":"95.439","LAUNCH_DATE":"2022-05-18","TIME_SYSTEM":"UTC","CENTER_NAME":"EARTH","MEAN_MOTION":"15.08814113","FILE":"3804075","GP_ID":"225837580","DECAY_DATE":null,"RCS_SIZE":"LARGE","COUNTRY_CODE":"US","TLE_LINE2":"2 52697  53.2146 118.0835 0001257 111.9684 248.1442 15.08814113 42646","ECCENTRICITY":"0.00012570","MEAN_MOTION_DDOT":"0.0000000000000","MEAN_MOTION_DOT":"0.00013153","INCLINATION":"53.2146","OBJECT_ID":"2022-053AT","MEAN_ELEMENT_THEORY":"SGP4","SEMIMAJOR_AXIS":"6917.960","CLASSIFICATION_TYPE":"U","ARG_OF_PERICENTER":"111.9684"},{"EPOCH":"2023-02-17T17:08:25.063008","OBJECT_TYPE":"PAYLOAD","ELEMENT_SET_NO":"999","PERIOD":"95.386","LAUNCH_DATE":"2022-05-18","MEAN_ANOMALY":"279.0034","REF_FRAME":"TEME","REV_AT_EPOCH":"4260","SITE":"AFETR","TLE_LINE1":"1 52698U 22053AU  23048.71417897  .00018277  00000-0  11380-2 0  9993","APOAPSIS":"538.178","PERIAPSIS":"536.350","BSTAR":"0.00113800000000","RA_OF_ASC_NODE":"118.9239","OBJECT_NAME":"STARLINK-4030","EPHEMERIS_TYPE":"0","NORAD_CAT_ID":"52698","MEAN_ELEMENT_THEORY":"SGP4","SEMIMAJOR_AXIS":"6915.399","CLASSIFICATION_TYPE":"U","ARG_OF_PERICENTER":"81.1108","MEAN_MOTION_DOT":"0.00018277","OBJECT_ID":"2022-053AU","INCLINATION":"53.2161","GP_ID":"225838330","DECAY_DATE":null,"RCS_SIZE":"MEDIUM","COUNTRY_CODE":"US","TLE_LINE2":"2 52698  53.2161 118.9239 0001322  81.1108 279.0034 15.09652237 42607","ECCENTRICITY":"0.00013220","MEAN_MOTION_DDOT":"0.0000000000000","TIME_SYSTEM":"UTC","CENTER_NAME":"EARTH","MEAN_MOTION":"15.09652237","FILE":"3804075"},{"RA_OF_ASC_NODE":"108.1434","BSTAR":"0.00115480000000","NORAD_CAT_ID":"52699","OBJECT_NAME":"STARLINK-3987","EPHEMERIS_TYPE":"0","APOAPSIS":"540.710","PERIAPSIS":"538.924","MEAN_ANOMALY":"258.5173","SITE":"AFETR","TLE_LINE1":"1 52699U 22053AV  23048.88876911  .00018127  00000-0  11548-2 0  9998","REV_AT_EPOCH":"4279","REF_FRAME":"TEME","OBJECT_TYPE":"PAYLOAD","EPOCH":"2023-02-17T21:19:49.651104","ELEMENT_SET_NO":"999","LAUNCH_DATE":"2022-05-18","PERIOD":"95.439","TIME_SYSTEM":"UTC","CENTER_NAME":"EARTH","FILE":"3804075","MEAN_MOTION":"15.08816449","DECAY_DATE":null,"GP_ID":"225837079","TLE_LINE2":"2 52699  53.2169 108.1434 0001291 101.5964 258.5173 15.08816449 42798","MEAN_MOTION_DDOT":"0.0000000000000","ECCENTRICITY":"0.00012910","COUNTRY_CODE":"US","RCS_SIZE":"LARGE","MEAN_MOTION_DOT":"0.00018127","OBJECT_ID":"2022-053AV","INCLINATION":"53.2169","MEAN_ELEMENT_THEORY":"SGP4","SEMIMAJOR_AXIS":"6917.952","ARG_OF_PERICENTER":"101.5964","CLASSIFICATION_TYPE":"U"},{"PERIAPSIS":"539.342","APOAPSIS":"540.291","NORAD_CAT_ID":"52700","EPHEMERIS_TYPE":"0","OBJECT_NAME":"STARLINK-4034","RA_OF_ASC_NODE":"118.0734","BSTAR":"0.00126400000000","LAUNCH_DATE":"2022-05-18","PERIOD":"95.439","ELEMENT_SET_NO":"999","EPOCH":"2023-02-17T21:44:59.444448","OBJECT_TYPE":"PAYLOAD","TLE_LINE1":"1 52700U 22053AW  23048.90624357  .00019873  00000-0  12640-2 0  9992","SITE":"AFETR","REV_AT_EPOCH":"4264","REF_FRAME":"TEME","MEAN_ANOMALY":"260.0217","ECCENTRICITY":"0.00006860","MEAN_MOTION_DDOT":"0.0000000000000","TLE_LINE2":"2 52700  53.2156 118.0734 0000686 100.0852 260.0217 15.08816872 42648","RCS_SIZE":"LARGE","COUNTRY_CODE":"US","GP_ID":"225836830","DECAY_DATE":null,"FILE":"3804075","MEAN_MOTION":"15.08816872","CENTER_NAME":"EARTH","TIME_SYSTEM":"UTC","ARG_OF_PERICENTER":"100.0852","CLASSIFICATION_TYPE":"U","SEMIMAJOR_AXIS":"6917.951","MEAN_ELEMENT_THEORY":"SGP4","INCLINATION":"53.2156","OBJECT_ID":"2022-053AW","MEAN_MOTION_DOT":"0.00019873"},{"RA_OF_ASC_NODE":"103.2315","BSTAR":"0.00045651000000","NORAD_CAT_ID":"52701","EPHEMERIS_TYPE":"0","OBJECT_NAME":"STARLINK-4003","PERIAPSIS":"539.110","APOAPSIS":"540.437","MEAN_ANOMALY":"277.9033","TLE_LINE1":"1 52701U 22053AX  23048.87169512  .00006983  00000-0  45651-3 0  9993","SITE":"AFETR","REF_FRAME":"TEME","REV_AT_EPOCH":"4286","ELEMENT_SET_NO":"999","OBJECT_TYPE":"PAYLOAD","EPOCH":"2023-02-17T20:55:14.458368","LAUNCH_DATE":"2022-05-18","PERIOD":"95.438","CENTER_NAME":"EARTH","TIME_SYSTEM":"UTC","FILE":"3804075","MEAN_MOTION":"15.08830723","DECAY_DATE":null,"GP_ID":"225838080","ECCENTRICITY":"0.00009590","MEAN_MOTION_DDOT":"0.0000000000000","TLE_LINE2":"2 52701  53.2143 103.2315 0000959  82.2068 277.9033 15.08830723 42867","RCS_SIZE":"LARGE","COUNTRY_CODE":"US","MEAN_MOTION_DOT":"0.00006983","INCLINATION":"53.2143","OBJECT_ID":"2022-053AX","SEMIMAJOR_AXIS":"6917.909","MEAN_ELEMENT_THEORY":"SGP4","ARG_OF_PERICENTER":"82.2068","CLASSIFICATION_TYPE":"U"},{"DECAY_DATE":null,"GP_ID":"225837831","TLE_LINE2":"2 52702  53.2149 119.0090 0001233  62.0960 298.0156 15.08812906 42618","ECCENTRICITY":"0.00012330","MEAN_MOTION_DDOT":"0.0000000000000","RCS_SIZE":"LARGE","COUNTRY_CODE":"US","TIME_SYSTEM":"UTC","CENTER_NAME":"EARTH","FILE":"3804075","MEAN_MOTION":"15.08812906","SEMIMAJOR_AXIS":"6917.963","MEAN_ELEMENT_THEORY":"SGP4","ARG_OF_PERICENTER":"62.0960","CLASSIFICATION_TYPE":"U","MEAN_MOTION_DOT":"0.00026558","OBJECT_ID":"2022-053AY","INCLINATION":"53.2149","APOAPSIS":"540.681","PERIAPSIS":"538.975","RA_OF_ASC_NODE":"119.0090","BSTAR":"0.00168170000000","NORAD_CAT_ID":"52702","OBJECT_NAME":"STARLINK-4033","EPHEMERIS_TYPE":"0","EPOCH":"2023-02-17T16:52:09.213024","OBJECT_TYPE":"PAYLOAD","ELEMENT_SET_NO":"999","LAUNCH_DATE":"2022-05-18","PERIOD":"95.439","MEAN_ANOMALY":"298.0156","SITE":"AFETR","TLE_LINE1":"1 52702U 22053AY  23048.70288441  .00026558  00000-0  16817-2 0  9990","REF_FRAME":"TEME","REV_AT_EPOCH":"4261"},{"NORAD_CAT_ID":"52703","OBJECT_NAME":"STARLINK-4020","EPHEMERIS_TYPE":"0","RA_OF_ASC_NODE":"104.1711","BSTAR":"0.00236350000000","APOAPSIS":"540.565","PERIAPSIS":"538.919","SITE":"AFETR","TLE_LINE1":"1 52703U 22053AZ  23048.66193816  .00037529  00000-0  23635-2 0  9993","REV_AT_EPOCH":"4155","REF_FRAME":"TEME","MEAN_ANOMALY":"243.5735","LAUNCH_DATE":"2022-05-18","PERIOD":"95.437","EPOCH":"2023-02-17T15:53:11.457024","OBJECT_TYPE":"PAYLOAD","ELEMENT_SET_NO":"999","FILE":"3804075","MEAN_MOTION":"15.08841065","TIME_SYSTEM":"UTC","CENTER_NAME":"EARTH","TLE_LINE2":"2 52703  53.2154 104.1711 0001190 116.5379 243.5735 15.08841065 41559","MEAN_MOTION_DDOT":"0.0000000000000","ECCENTRICITY":"0.00011900","RCS_SIZE":"LARGE","COUNTRY_CODE":"US","GP_ID":"225836580","DECAY_DATE":null,"OBJECT_ID":"2022-053AZ","INCLINATION":"53.2154","MEAN_MOTION_DOT":"0.00037529","ARG_OF_PERICENTER":"116.5379","CLASSIFICATION_TYPE":"U","MEAN_ELEMENT_THEORY":"SGP4","SEMIMAJOR_AXIS":"6917.877"}];
